[{"OBJECT_NAME":"STARLINK-4300","OBJECT_ID":"2022-083AT","EPOCH":"2026-03-09T11:11:27.442176","MEAN_MOTION":15.08844016,"ECCENTRICITY":0.00012528,"INCLINATION":53.2153,"RA_OF_ASC_NODE":140.1125,"ARG_OF_PERICENTER":83.9868,"MEAN_ANOMALY":276.1267,"EPHEMERIS_TYPE":0,"CLASSIFICATION_TYPE":"U","NORAD_CAT_ID":53173,"ELEMENT_SET_NO":999,"REV_AT_EPOCH":20166,"BSTAR":7.551612e-6,"MEAN_MOTION_DOT":-1.68e-6,"MEAN_MOTION_DDOT":0},{"OBJECT_NAME":"DELTA 1 DEB","OBJECT_ID":"1975-004G","EPOCH":"2026-03-09T15:36:08.786016","MEAN_MOTION":14.94952077,"ECCENTRICITY":0.0108933,"INCLINATION":98.7496,"RA_OF_ASC_NODE":312.2418,"ARG_OF_PERICENTER":37.6041,"MEAN_ANOMALY":323.2729,"EPHEMERIS_TYPE":0,"CLASSIFICATION_TYPE":"U","NORAD_CAT_ID":8679,"ELEMENT_SET_NO":999,"REV_AT_EPOCH":62753,"BSTAR":0.0013803,"MEAN_MOTION_DOT":0.00016927,"MEAN_MOTION_DDOT":0}]
